{
  "type": "FeatureCollection",
  "features": [
    {
      "type": "Feature",
      "properties": {
        "norad_id": 34366,
        "name": "IRIDIUM 33 DEB",
        "group": "iridium-33-debris",
        "lat": 72.6091998510664,
        "lon": 54.60273530674677,
        "alt_km": 689.918303964555,
        "timestamp": "2025-12-27T11:23:20.286314+00:00",
        "meta_object_name": "IRIDIUM 33 DEB",
        "meta_object_id": "1997-051FJ",
        "meta_epoch": "2025-12-27T04:46:07.017312",
        "meta_mean_motion": 14.54168498,
        "meta_eccentricity": 0.002303,
        "meta_inclination": 86.3682,
        "meta_ra_of_asc_node": 43.0228,
        "meta_arg_of_pericenter": 94.9118,
        "meta_mean_anomaly": 335.0579,
        "meta_ephemeris_type": 0,
        "meta_classification_type": "U",
        "meta_norad_cat_id": 34366,
        "meta_element_set_no": 999,
        "meta_rev_at_epoch": 88392,
        "meta_bstar": 0.0010581,
        "meta_mean_motion_dot": 4.511e-05,
        "meta_mean_motion_ddot": 0,
        "tle_line1": "1 34366U 97051FJ  25361.19869233  .00004511  00000+0  10581-2 0  9999",
        "tle_line2": "2 34366  86.3682  43.0228 0023030  94.9118 335.0579 14.54168498883928"
      },
      "geometry": {
        "type": "Point",
        "coordinates": [
          54.60273530674677,
          72.6091998510664
        ]
      }
    },
    {
      "type": "Feature",
      "properties": {
        "norad_id": 34375,
        "name": "IRIDIUM 33 DEB",
        "group": "iridium-33-debris",
        "lat": -56.04818263353113,
        "lon": 2.0789537498200854,
        "alt_km": 907.105404345275,
        "timestamp": "2025-12-27T11:23:20.286324+00:00",
        "meta_object_name": "IRIDIUM 33 DEB",
        "meta_object_id": "1997-051FT",
        "meta_epoch": "2025-12-26T23:01:44.485824",
        "meta_mean_motion": 14.1801844,
        "meta_eccentricity": 0.0103676,
        "meta_inclination": 86.4324,
        "meta_ra_of_asc_node": 176.9699,
        "meta_arg_of_pericenter": 82.2682,
        "meta_mean_anomaly": 46.0207,
        "meta_ephemeris_type": 0,
        "meta_classification_type": "U",
        "meta_norad_cat_id": 34375,
        "meta_element_set_no": 999,
        "meta_rev_at_epoch": 86913,
        "meta_bstar": 0.00046621,
        "meta_mean_motion_dot": 1.026e-05,
        "meta_mean_motion_ddot": 0,
        "tle_line1": "1 34375U 97051FT  25360.95954266  .00001026  00000+0  46621-3 0  9996",
        "tle_line2": "2 34375  86.4324 176.9699 0103676  82.2682  46.0207 14.18018440869136"
      },
      "geometry": {
        "type": "Point",
        "coordinates": [
          2.0789537498200854,
          -56.04818263353113
        ]
      }
    },
    {
      "type": "Feature",
      "properties": {
        "norad_id": 34376,
        "name": "IRIDIUM 33 DEB",
        "group": "iridium-33-debris",
        "lat": 84.89198448197435,
        "lon": 133.5124198525257,
        "alt_km": 658.4064705849833,
        "timestamp": "2025-12-27T11:23:20.286335+00:00",
        "meta_object_name": "IRIDIUM 33 DEB",
        "meta_object_id": "1997-051FU",
        "meta_epoch": "2025-12-26T23:28:16.470624",
        "meta_mean_motion": 14.62769588,
        "meta_eccentricity": 0.002868,
        "meta_inclination": 86.2986,
        "meta_ra_of_asc_node": 0.1373,
        "meta_arg_of_pericenter": 120.2874,
        "meta_mean_anomaly": 240.1181,
        "meta_ephemeris_type": 0,
        "meta_classification_type": "U",
        "meta_norad_cat_id": 34376,
        "meta_element_set_no": 999,
        "meta_rev_at_epoch": 88215,
        "meta_bstar": 0.0018717,
        "meta_mean_motion_dot": 9.625e-05,
        "meta_mean_motion_ddot": 0,
        "tle_line1": "1 34376U 97051FU  25360.97796841  .00009625  00000+0  18717-2 0  9999",
        "tle_line2": "2 34376  86.2986   0.1373 0028680 120.2874 240.1181 14.62769588882153"
      },
      "geometry": {
        "type": "Point",
        "coordinates": [
          133.5124198525257,
          84.89198448197435
        ]
      }
    },
    {
      "type": "Feature",
      "properties": {
        "norad_id": 34486,
        "name": "IRIDIUM 33 DEB",
        "group": "iridium-33-debris",
        "lat": -77.35530175689685,
        "lon": -11.108542412626038,
        "alt_km": 593.3708643767177,
        "timestamp": "2025-12-27T11:23:20.286346+00:00",
        "meta_object_name": "IRIDIUM 33 DEB",
        "meta_object_id": "1997-051GB",
        "meta_epoch": "2025-12-26T00:39:56.499264",
        "meta_mean_motion": 14.96400313,
        "meta_eccentricity": 0.00139183,
        "meta_inclination": 86.3935,
        "meta_ra_of_asc_node": 5.8877,
        "meta_arg_of_pericenter": 74.4824,
        "meta_mean_anomaly": 338.8012,
        "meta_ephemeris_type": 0,
        "meta_classification_type": "U",
        "meta_norad_cat_id": 34486,
        "meta_element_set_no": 999,
        "meta_rev_at_epoch": 89185,
        "meta_bstar": 0.0021412617,
        "meta_mean_motion_dot": 0.00024383,
        "meta_mean_motion_ddot": 0,
        "tle_line1": "1 34486U 97051GB  25360.02773726  .00024383  00000+0  21413-2 0  9999",
        "tle_line2": "2 34486  86.3935   5.8877 0013918  74.4824 338.8012 14.96400313891854"
      },
      "geometry": {
        "type": "Point",
        "coordinates": [
          -11.108542412626038,
          -77.35530175689685
        ]
      }
    },
    {
      "type": "Feature",
      "properties": {
        "norad_id": 34487,
        "name": "IRIDIUM 33 DEB",
        "group": "iridium-33-debris",
        "lat": 15.324858116543936,
        "lon": 7.036992386144383,
        "alt_km": 739.3157397479417,
        "timestamp": "2025-12-27T11:23:20.286357+00:00",
        "meta_object_name": "IRIDIUM 33 DEB",
        "meta_object_id": "1997-051GC",
        "meta_epoch": "2025-12-26T00:37:21.163296",
        "meta_mean_motion": 14.43232747,
        "meta_eccentricity": 0.00332617,
        "meta_inclination": 86.3429,
        "meta_ra_of_asc_node": 6.6563,
        "meta_arg_of_pericenter": 87.1121,
        "meta_mean_anomaly": 327.0907,
        "meta_ephemeris_type": 0,
        "meta_classification_type": "U",
        "meta_norad_cat_id": 34487,
        "meta_element_set_no": 999,
        "meta_rev_at_epoch": 88440,
        "meta_bstar": 0.00018559814,
        "meta_mean_motion_dot": 6.49e-06,
        "meta_mean_motion_ddot": 0,
        "tle_line1": "1 34487U 97051GC  25360.02593939  .00000649  00000+0  18560-3 0  9995",
        "tle_line2": "2 34487  86.3429   6.6563 0033261  87.1121 327.0907 14.43232747884400"
      },
      "geometry": {
        "type": "Point",
        "coordinates": [
          7.036992386144383,
          15.324858116543936
        ]
      }
    },
    {
      "type": "Feature",
      "properties": {
        "norad_id": 34488,
        "name": "IRIDIUM 33 DEB",
        "group": "iridium-33-debris",
        "lat": -33.39516953362952,
        "lon": -63.9326408469784,
        "alt_km": 469.3482548181364,
        "timestamp": "2025-12-27T11:23:20.286367+00:00",
        "meta_object_name": "IRIDIUM 33 DEB",
        "meta_object_id": "1997-051GD",
        "meta_epoch": "2025-12-27T02:08:12.094368",
        "meta_mean_motion": 15.33259084,
        "meta_eccentricity": 0.0008085,
        "meta_inclination": 86.3256,
        "meta_ra_of_asc_node": 298.6875,
        "meta_arg_of_pericenter": 29.5801,
        "meta_mean_anomaly": 330.5905,
        "meta_ephemeris_type": 0,
        "meta_classification_type": "U",
        "meta_norad_cat_id": 34488,
        "meta_element_set_no": 999,
        "meta_rev_at_epoch": 89459,
        "meta_bstar": 0.0056271,
        "meta_mean_motion_dot": 0.00185034,
        "meta_mean_motion_ddot": 0,
        "tle_line1": "1 34488U 97051GD  25361.08902887  .00185034  00000+0  56271-2 0  9991",
        "tle_line2": "2 34488  86.3256 298.6875 0008085  29.5801 330.5905 15.33259084894590"
      },
      "geometry": {
        "type": "Point",
        "coordinates": [
          -63.9326408469784,
          -33.39516953362952
        ]
      }
    },
    {
      "type": "Feature",
      "properties": {
        "norad_id": 34492,
        "name": "IRIDIUM 33 DEB",
        "group": "iridium-33-debris",
        "lat": -85.78981772872281,
        "lon": -154.41742317385163,
        "alt_km": 780.6397195490708,
        "timestamp": "2025-12-27T11:23:20.286378+00:00",
        "meta_object_name": "IRIDIUM 33 DEB",
        "meta_object_id": "1997-051GH",
        "meta_epoch": "2025-12-26T22:37:45.027264",
        "meta_mean_motion": 14.25970282,
        "meta_eccentricity": 0.0188844,
        "meta_inclination": 86.473,
        "meta_ra_of_asc_node": 328.887,
        "meta_arg_of_pericenter": 192.0084,
        "meta_mean_anomaly": 226.0259,
        "meta_ephemeris_type": 0,
        "meta_classification_type": "U",
        "meta_norad_cat_id": 34492,
        "meta_element_set_no": 999,
        "meta_rev_at_epoch": 85261,
        "meta_bstar": 0.0032813,
        "meta_mean_motion_dot": 9.462e-05,
        "meta_mean_motion_ddot": 0,
        "tle_line1": "1 34492U 97051GH  25360.94288226  .00009462  00000+0  32813-2 0  9990",
        "tle_line2": "2 34492  86.4730 328.8870 0188844 192.0084 226.0259 14.25970282852613"
      },
      "geometry": {
        "type": "Point",
        "coordinates": [
          -154.41742317385163,
          -85.78981772872281
        ]
      }
    }
  ]
}